H1 CPF  2  DGF 2024 03 14 11 074 01 lares2     NONE      
H2  2208001 5988    53105 2024 03 14 00 00 00 2024 03 21 00 00 00    60 1 1  0 0 0 1
H5  0.1740
H9
10 0 60387  14400.000000  0     -11290436.614         96802.531      -4795450.559
10 0 60387  14460.000000  0     -11163154.977         18303.490      -5086250.547
10 0 60387  14520.000000  0     -11028101.715        -61357.204      -5373093.444
10 0 60387  14580.000000  0     -10885390.361       -142186.671      -5655756.549
10 0 60387  14640.000000  0     -10735140.298       -224190.137      -5934020.464
10 0 60387  14700.000000  0     -10577476.646       -307370.885      -6207669.271
10 0 60387  14760.000000  0     -10412530.145       -391730.200      -6476490.692
10 0 60387  14820.000000  0     -10240437.038       -477267.320      -6740276.260
10 0 60387  14880.000000  0     -10061338.942       -563979.391      -6998821.472
10 0 60387  14940.000000  0      -9875382.719       -651861.423      -7251925.953
10 0 60387  15000.000000  0      -9682720.347       -740906.248      -7499393.605
10 0 60387  15060.000000  0      -9483508.774       -831104.481      -7741032.756
10 0 60387  15120.000000  0      -9277909.785       -922444.487      -7976656.313
10 0 60387  15180.000000  0      -9066089.848      -1014912.344      -8206081.897
10 0 60387  15240.000000  0      -8848219.973      -1108491.817      -8429131.987
10 0 60387  15300.000000  0      -8624475.553      -1203164.332      -8645634.052
10 0 60387  15360.000000  0      -8395036.211      -1298908.948      -8855420.682
10 0 60387  15420.000000  0      -8160085.640      -1395702.340      -9058329.717
10 0 60387  15480.000000  0      -7919811.442      -1493518.780      -9254204.364
10 0 60387  15540.000000  0      -7674404.959      -1592330.126      -9442893.323
10 0 60387  15600.000000  0      -7424061.113      -1692105.804      -9624250.893
10 0 60387  15660.000000  0      -7168978.226      -1792812.809      -9798137.084
10 0 60387  15720.000000  0      -6909357.856      -1894415.694      -9964417.725
10 0 60387  15780.000000  0      -6645404.617      -1996876.571     -10122964.559
10 0 60387  15840.000000  0      -6377326.004      -2100155.115     -10273655.341
10 0 60387  15900.000000  0      -6105332.215      -2204208.564     -10416373.929
10 0 60387  15960.000000  0      -5829635.968      -2308991.736     -10551010.370
10 0 60387  16020.000000  0      -5550452.321      -2414457.034     -10677460.981
10 0 60387  16080.000000  0      -5267998.490      -2520554.464     -10795628.426
10 0 60387  16140.000000  0      -4982493.660      -2627231.656     -10905421.787
10 0 60387  16200.000000  0      -4694158.803      -2734433.882     -11006756.631
10 0 60387  16260.000000  0      -4403216.493      -2842104.087     -11099555.073
10 0 60387  16320.000000  0      -4109890.713      -2950182.911     -11183745.832
10 0 60387  16380.000000  0      -3814406.672      -3058608.728     -11259264.282
10 0 60387  16440.000000  0      -3516990.615      -3167317.679     -11326052.501
10 0 60387  16500.000000  0      -3217869.637      -3276243.710     -11384059.311
10 0 60387  16560.000000  0      -2917271.488      -3385318.615     -11433240.317
10 0 60387  16620.000000  0      -2615424.392      -3494472.080     -11473557.936
10 0 60387  16680.000000  0      -2312556.856      -3603631.736     -11504981.428
10 0 60387  16740.000000  0      -2008897.479      -3712723.205     -11527486.912
10 0 60387  16800.000000  0      -1704674.769      -3821670.160     -11541057.387
10 0 60387  16860.000000  0      -1400116.954      -3930394.379     -11545682.743
10 0 60387  16920.000000  0      -1095451.798      -4038815.811     -11541359.765
10 0 60387  16980.000000  0       -790906.414      -4146852.635     -11528092.138
10 0 60387  17040.000000  0       -486707.080      -4254421.329     -11505890.438
10 0 60387  17100.000000  0       -183079.060      -4361436.742     -11474772.129
10 0 60387  17160.000000  0        119753.582      -4467812.165     -11434761.545
10 0 60387  17220.000000  0        421568.157      -4573459.406     -11385889.872
10 0 60387  17280.000000  0        722143.531      -4678288.872     -11328195.125
10 0 60387  17340.000000  0       1021260.300      -4782209.643     -11261722.117
10 0 60387  17400.000000  0       1318700.967      -4885129.565     -11186522.427
10 0 60387  17460.000000  0       1614250.108      -4986955.328     -11102654.358
10 0 60387  17520.000000  0       1907694.547      -5087592.558     -11010182.896
10 0 60387  17580.000000  0       2198823.520      -5186945.910     -10909179.660
10 0 60387  17640.000000  0       2487428.842      -5284919.155     -10799722.844
10 0 60387  17700.000000  0       2773305.067      -5381415.282     -10681897.166
10 0 60387  17760.000000  0       3056249.646      -5476336.592     -10555793.796
10 0 60387  17820.000000  0       3336063.089      -5569584.798     -10421510.293
10 0 60387  17880.000000  0       3612549.111      -5661061.124     -10279150.529
10 0 60387  17940.000000  0       3885514.787      -5750666.412     -10128824.611
10 0 60387  18000.000000  0       4154770.698      -5838301.225      -9970648.801
10 0 60387  18060.000000  0       4420131.073      -5923865.953      -9804745.422
10 0 60387  18120.000000  0       4681413.929      -6007260.920      -9631242.773
10 0 60387  18180.000000  0       4938441.210      -6088386.495      -9450275.030
10 0 60387  18240.000000  0       5191038.915      -6167143.201      -9261982.140
10 0 60387  18300.000000  0       5439037.232      -6243431.826      -9066509.724
10 0 60387  18360.000000  0       5682270.659      -6317153.539      -8864008.961
10 0 60387  18420.000000  0       5920578.125      -6388209.996      -8654636.475
10 0 60387  18480.000000  0       6153803.109      -6456503.464      -8438554.218
10 0 60387  18540.000000  0       6381793.750      -6521936.927      -8215929.345
10 0 60387  18600.000000  0       6604402.955      -6584414.206      -7986934.089
10 0 60387  18660.000000  0       6821488.507      -6643840.074      -7751745.633
10 0 60387  18720.000000  0       7032913.155      -6700120.369      -7510545.969
10 0 60387  18780.000000  0       7238544.719      -6753162.115      -7263521.765
10 0 60387  18840.000000  0       7438256.174      -6802873.635      -7010864.221
10 0 60387  18900.000000  0       7631925.733      -6849164.665      -6752768.924
10 0 60387  18960.000000  0       7819436.934      -6891946.474      -6489435.697
10 0 60387  19020.000000  0       8000678.709      -6931131.977      -6221068.449
10 0 60387  19080.000000  0       8175545.460      -6966635.847      -5947875.018
10 0 60387  19140.000000  0       8343937.119      -6998374.636      -5670067.012
10 0 60387  19200.000000  0       8505759.213      -7026266.878      -5387859.644
10 0 60387  19260.000000  0       8660922.915      -7050233.211      -5101471.574
10 0 60387  19320.000000  0       8809345.100      -7070196.483      -4811124.731
10 0 60387  19380.000000  0       8950948.383      -7086081.860      -4517044.153
10 0 60387  19440.000000  0       9085661.164      -7097816.940      -4219457.805
10 0 60387  19500.000000  0       9213417.660      -7105331.856      -3918596.407
10 0 60387  19560.000000  0       9334157.935      -7108559.382      -3614693.257
10 0 60387  19620.000000  0       9447827.925      -7107435.036      -3307984.049
10 0 60387  19680.000000  0       9554379.453      -7101897.184      -2998706.691
10 0 60387  19740.000000  0       9653770.246      -7091887.137      -2687101.120
10 0 60387  19800.000000  0       9745963.940      -7077349.250      -2373409.118
10 0 60387  19860.000000  0       9830930.086      -7058231.014      -2057874.123
10 0 60387  19920.000000  0       9908644.144      -7034483.156      -1740741.040
10 0 60387  19980.000000  0       9979087.477      -7006059.721      -1422256.051
10 0 60387  20040.000000  0      10042247.335      -6972918.164      -1102666.426
10 0 60387  20100.000000  0      10098116.841      -6935019.433       -782220.325
10 0 60387  20160.000000  0      10146694.962      -6892328.054       -461166.608
10 0 60387  20220.000000  0      10187986.484      -6844812.206       -139754.644
10 0 60387  20280.000000  0      10222001.976      -6792443.798        181765.890
10 0 60387  20340.000000  0      10248757.750      -6735198.544        503145.199
10 0 60387  20400.000000  0      10268275.819      -6673056.029        824133.567
10 0 60387  20460.000000  0      10280583.845      -6605999.775       1144481.550
10 0 60387  20520.000000  0      10285715.085      -6534017.308       1463940.175
10 0 60387  20580.000000  0      10283708.336      -6457100.211       1782261.130
10 0 60387  20640.000000  0      10274607.864      -6375244.181       2099196.961
10 0 60387  20700.000000  0      10258463.341      -6288449.083       2414501.266
10 0 60387  20760.000000  0      10235329.769      -6196718.992       2727928.885
10 0 60387  20820.000000  0      10205267.405      -6100062.244       3039236.094
10 0 60387  20880.000000  0      10168341.672      -5998491.467       3348180.795
10 0 60387  20940.000000  0      10124623.081      -5892023.625       3654522.708
10 0 60387  21000.000000  0      10074187.134      -5780680.043       3958023.554
10 0 60387  21060.000000  0      10017114.232      -5664486.436       4258447.245
10 0 60387  21120.000000  0       9953489.574      -5543472.935       4555560.070
10 0 60387  21180.000000  0       9883403.054      -5417674.099       4849130.874
10 0 60387  21240.000000  0       9806949.157      -5287128.939       5138931.241
10 0 60387  21300.000000  0       9724226.845      -5151880.919       5424735.675
10 0 60387  21360.000000  0       9635339.446      -5011977.966       5706321.771
10 0 60387  21420.000000  0       9540394.535      -4867472.470       5983470.394
10 0 60387  21480.000000  0       9439503.812      -4718421.284       6255965.847
10 0 60387  21540.000000  0       9332782.981      -4564885.709       6523596.042
99